[{"OBJECT_NAME":"COSMOS 2490 (RODNIK-S 9)","OBJECT_ID":"2013-076C","EPOCH":"2026-03-09T21:24:36.853344","MEAN_MOTION":12.42873681,"ECCENTRICITY":0.00206499,"INCLINATION":82.4798,"RA_OF_ASC_NODE":230.0091,"ARG_OF_PERICENTER":329.5508,"MEAN_ANOMALY":30.4371,"EPHEMERIS_TYPE":0,"CLASSIFICATION_TYPE":"U","NORAD_CAT_ID":39485,"ELEMENT_SET_NO":999,"REV_AT_EPOCH":55354,"BSTAR":-0.00092311778,"MEAN_MOTION_DOT":-1.18e-6,"MEAN_MOTION_DDOT":0},{"OBJECT_NAME":"DELTA 1 DEB","OBJECT_ID":"1973-086DC","EPOCH":"2026-03-09T18:33:47.683584","MEAN_MOTION":12.31892458,"ECCENTRICITY":0.0053636,"INCLINATION":102.063,"RA_OF_ASC_NODE":14.7376,"ARG_OF_PERICENTER":133.8801,"MEAN_ANOMALY":295.2228,"EPHEMERIS_TYPE":0,"CLASSIFICATION_TYPE":"U","NORAD_CAT_ID":7138,"ELEMENT_SET_NO":999,"REV_AT_EPOCH":35362,"BSTAR":0.00049480496,"MEAN_MOTION_DOT":1.6e-7,"MEAN_MOTION_DDOT":0}]
